[{"OBJECT_NAME":"IUS R/B(2)","OBJECT_ID":"1989-046D","EPOCH":"2026-04-26T08:06:25.653024","MEAN_MOTION":1.01298856,"ECCENTRICITY":0.00446829,"INCLINATION":12.2134,"RA_OF_ASC_NODE":338.6514,"ARG_OF_PERICENTER":12.7092,"MEAN_ANOMALY":347.3417,"EPHEMERIS_TYPE":0,"CLASSIFICATION_TYPE":"U","NORAD_CAT_ID":20069,"ELEMENT_SET_NO":999,"REV_AT_EPOCH":2571,"BSTAR":0,"MEAN_MOTION_DOT":7.0e-7,"MEAN_MOTION_DDOT":0},{"OBJECT_NAME":"GORIZONT 18","OBJECT_ID":"1989-052A","EPOCH":"2026-04-27T11:38:22.024032","MEAN_MOTION":0.99400456,"ECCENTRICITY":0.0036903,"INCLINATION":12.4433,"RA_OF_ASC_NODE":334.8083,"ARG_OF_PERICENTER":346.8253,"MEAN_ANOMALY":2.1473,"EPHEMERIS_TYPE":0,"CLASSIFICATION_TYPE":"U","NORAD_CAT_ID":20107,"ELEMENT_SET_NO":999,"REV_AT_EPOCH":13390,"BSTAR":0,"MEAN_MOTION_DOT":-2.18e-6,"MEAN_MOTION_DDOT":0},{"OBJECT_NAME":"TVSAT 2","OBJECT_ID":"1989-062A","EPOCH":"2026-04-27T03:07:21.588672","MEAN_MOTION":0.99845128,"ECCENTRICITY":0.00019973,"INCLINATION":14.6944,"RA_OF_ASC_NODE":356.1759,"ARG_OF_PERICENTER":204.0381,"MEAN_ANOMALY":349.5944,"EPHEMERIS_TYPE":0,"CLASSIFICATION_TYPE":"U","NORAD_CAT_ID":20168,"ELEMENT_SET_NO":999,"REV_AT_EPOCH":13399,"BSTAR":0,"MEAN_MOTION_DOT":-2.49e-6,"MEAN_MOTION_DDOT":0},{"OBJECT_NAME":"HIPPARCOS","OBJECT_ID":"1989-062B","EPOCH":"2026-04-26T07:13:50.598048","MEAN_MOTION":2.26412736,"ECCENTRICITY":0.71908948,"INCLINATION":7.3439,"RA_OF_ASC_NODE":340.548,"ARG_OF_PERICENTER":302.772,"MEAN_ANOMALY":7.4595,"EPHEMERIS_TYPE":0,"CLASSIFICATION_TYPE":"U","NORAD_CAT_ID":20169,"ELEMENT_SET_NO":999,"REV_AT_EPOCH":26818,"BSTAR":0.00081112818,"MEAN_MOTION_DOT":8.3e-7,"MEAN_MOTION_DDOT":0},{"OBJECT_NAME":"TITAN 34D TRANSTAGE R/B","OBJECT_ID":"1989-069D","EPOCH":"2026-04-26T01:12:39.210912","MEAN_MOTION":1.01247763,"ECCENTRICITY":0.00705048,"INCLINATION":11.1226,"RA_OF_ASC_NODE":327.9541,"ARG_OF_PERICENTER":346.2507,"MEAN_ANOMALY":13.4728,"EPHEMERIS_TYPE":0,"CLASSIFICATION_TYPE":"U","NORAD_CAT_ID":20205,"ELEMENT_SET_NO":999,"REV_AT_EPOCH":2647,"BSTAR":0,"MEAN_MOTION_DOT":-3.61e-6,"MEAN_MOTION_DDOT":0},{"OBJECT_NAME":"FLTSATCOM 8 (USA 46)","OBJECT_ID":"1989-077A","EPOCH":"2026-04-27T12:49:38.652096","MEAN_MOTION":1.0028022,"ECCENTRICITY":0.0006805,"INCLINATION":12.436,"RA_OF_ASC_NODE":351.47,"ARG_OF_PERICENTER":18.1666,"MEAN_ANOMALY":163.8436,"EPHEMERIS_TYPE":0,"CLASSIFICATION_TYPE":"U","NORAD_CAT_ID":20253,"ELEMENT_SET_NO":999,"REV_AT_EPOCH":26005,"BSTAR":0,"MEAN_MOTION_DOT":-3.77e-6,"MEAN_MOTION_DDOT":0},{"OBJECT_NAME":"GORIZONT 19","OBJECT_ID":"1989-081A","EPOCH":"2026-04-27T02:07:51.635712","MEAN_MOTION":1.00193618,"ECCENTRICITY":0.0005298,"INCLINATION":12.1321,"RA_OF_ASC_NODE":333.8381,"ARG_OF_PERICENTER":284.5824,"MEAN_ANOMALY":75.7342,"EPHEMERIS_TYPE":0,"CLASSIFICATION_TYPE":"U","NORAD_CAT_ID":20263,"ELEMENT_SET_NO":999,"REV_AT_EPOCH":4682,"BSTAR":0,"MEAN_MOTION_DOT":-2.16e-6,"MEAN_MOTION_DDOT":0},{"OBJECT_NAME":"SL-12 R/B(2)","OBJECT_ID":"1989-081D","EPOCH":"2026-04-27T11:23:27.033216","MEAN_MOTION":1.0060295,"ECCENTRICITY":0.0026419,"INCLINATION":11.9371,"RA_OF_ASC_NODE":333.2228,"ARG_OF_PERICENTER":122.6098,"MEAN_ANOMALY":61.4786,"EPHEMERIS_TYPE":0,"CLASSIFICATION_TYPE":"U","NORAD_CAT_ID":20266,"ELEMENT_SET_NO":999,"REV_AT_EPOCH":11884,"BSTAR":0,"MEAN_MOTION_DOT":-3.15e-6,"MEAN_MOTION_DDOT":0},{"OBJECT_NAME":"HIMAWARI-4 AKM","OBJECT_ID":"1989-070C","EPOCH":"2026-04-27T07:29:08.401056","MEAN_MOTION":0.98763132,"ECCENTRICITY":0.0242542,"INCLINATION":12.6426,"RA_OF_ASC_NODE":337.5095,"ARG_OF_PERICENTER":62.0339,"MEAN_ANOMALY":136.7278,"EPHEMERIS_TYPE":0,"CLASSIFICATION_TYPE":"U","NORAD_CAT_ID":20317,"ELEMENT_SET_NO":999,"REV_AT_EPOCH":4615,"BSTAR":0,"MEAN_MOTION_DOT":-6.8e-7,"MEAN_MOTION_DDOT":0},{"OBJECT_NAME":"COSMOS 2050","OBJECT_ID":"1989-091A","EPOCH":"2026-04-26T18:15:09.749664","MEAN_MOTION":2.00379961,"ECCENTRICITY":0.5950514,"INCLINATION":65.427,"RA_OF_ASC_NODE":88.1669,"ARG_OF_PERICENTER":164.3453,"MEAN_ANOMALY":228.0025,"EPHEMERIS_TYPE":0,"CLASSIFICATION_TYPE":"U","NORAD_CAT_ID":20330,"ELEMENT_SET_NO":999,"REV_AT_EPOCH":26677,"BSTAR":0,"MEAN_MOTION_DOT":9.6e-7,"MEAN_MOTION_DDOT":0},{"OBJECT_NAME":"USA 48","OBJECT_ID":"1989-090B","EPOCH":"2026-04-27T10:22:38.661024","MEAN_MOTION":1.00729857,"ECCENTRICITY":0.0289447,"INCLINATION":16.9254,"RA_OF_ASC_NODE":341.27,"ARG_OF_PERICENTER":113.3668,"MEAN_ANOMALY":252.8589,"EPHEMERIS_TYPE":0,"CLASSIFICATION_TYPE":"U","NORAD_CAT_ID":20355,"ELEMENT_SET_NO":999,"REV_AT_EPOCH":725,"BSTAR":0,"MEAN_MOTION_DOT":-2.42e-6,"MEAN_MOTION_DDOT":0},{"OBJECT_NAME":"IUS R/B(2)","OBJECT_ID":"1989-090D","EPOCH":"2026-04-26T02:21:01.365408","MEAN_MOTION":0.99517265,"ECCENTRICITY":0.0335062,"INCLINATION":17.2983,"RA_OF_ASC_NODE":343.1661,"ARG_OF_PERICENTER":100.664,"MEAN_ANOMALY":263.0893,"EPHEMERIS_TYPE":0,"CLASSIFICATION_TYPE":"U","NORAD_CAT_ID":20357,"ELEMENT_SET_NO":999,"REV_AT_EPOCH":2484,"BSTAR":0,"MEAN_MOTION_DOT":-2.94e-6,"MEAN_MOTION_DDOT":0},{"OBJECT_NAME":"RADUGA 24","OBJECT_ID":"1989-098A","EPOCH":"2026-04-27T00:19:25.358016","MEAN_MOTION":1.00298002,"ECCENTRICITY":0.00030899,"INCLINATION":12.5603,"RA_OF_ASC_NODE":334.1574,"ARG_OF_PERICENTER":300.4266,"MEAN_ANOMALY":47.9392,"EPHEMERIS_TYPE":0,"CLASSIFICATION_TYPE":"U","NORAD_CAT_ID":20367,"ELEMENT_SET_NO":999,"REV_AT_EPOCH":13245,"BSTAR":0,"MEAN_MOTION_DOT":-3.5e-6,"MEAN_MOTION_DDOT":0},{"OBJECT_NAME":"COSMOS 2054","OBJECT_ID":"1989-101A","EPOCH":"2026-04-26T19:34:22.923840","MEAN_MOTION":1.00257354,"ECCENTRICITY":8.157e-5,"INCLINATION":12.2944,"RA_OF_ASC_NODE":334.6058,"ARG_OF_PERICENTER":232.0251,"MEAN_ANOMALY":124.9375,"EPHEMERIS_TYPE":0,"CLASSIFICATION_TYPE":"U","NORAD_CAT_ID":20391,"ELEMENT_SET_NO":999,"REV_AT_EPOCH":13334,"BSTAR":0,"MEAN_MOTION_DOT":3.2e-7,"MEAN_MOTION_DDOT":0},{"OBJECT_NAME":"LEASAT 5","OBJECT_ID":"1990-002B","EPOCH":"2026-04-27T10:22:26.660928","MEAN_MOTION":0.99600228,"ECCENTRICITY":0.0004519,"INCLINATION":11.1044,"RA_OF_ASC_NODE":353.0446,"ARG_OF_PERICENTER":47.4264,"MEAN_ANOMALY":313.7782,"EPHEMERIS_TYPE":0,"CLASSIFICATION_TYPE":"U","NORAD_CAT_ID":20410,"ELEMENT_SET_NO":999,"REV_AT_EPOCH":11792,"BSTAR":0,"MEAN_MOTION_DOT":-2.54e-6,"MEAN_MOTION_DDOT":0},{"OBJECT_NAME":"SL-12 R/B(2)","OBJECT_ID":"1983-020D","EPOCH":"2026-04-29T19:33:19.423296","MEAN_MOTION":0.24736027,"ECCENTRICITY":0.68862098,"INCLINATION":77.2982,"RA_OF_ASC_NODE":58.2462,"ARG_OF_PERICENTER":50.7395,"MEAN_ANOMALY":358.5253,"EPHEMERIS_TYPE":0,"CLASSIFICATION_TYPE":"U","NORAD_CAT_ID":20413,"ELEMENT_SET_NO":999,"REV_AT_EPOCH":1123,"BSTAR":0,"MEAN_MOTION_DOT":-1.011e-5,"MEAN_MOTION_DDOT":0},{"OBJECT_NAME":"STTW-4","OBJECT_ID":"1990-011A","EPOCH":"2026-04-27T03:12:21.655008","MEAN_MOTION":1.0030331,"ECCENTRICITY":0.00020646,"INCLINATION":14.1824,"RA_OF_ASC_NODE":346.8041,"ARG_OF_PERICENTER":156.6908,"MEAN_ANOMALY":213.2022,"EPHEMERIS_TYPE":0,"CLASSIFICATION_TYPE":"U","NORAD_CAT_ID":20473,"ELEMENT_SET_NO":999,"REV_AT_EPOCH":13253,"BSTAR":0,"MEAN_MOTION_DOT":-2.93e-6,"MEAN_MOTION_DDOT":0}]
