IUS R/B(2)              
1 20069U 89046D   26116.33779691  .00000070  00000+0  00000+0 0  9990
2 20069  12.2134 338.6514 0044682  12.7092 347.3417  1.01298856 25711
GORIZONT 18             
1 20107U 89052A   26117.48497713 -.00000218  00000+0  00000+0 0  9994
2 20107  12.4433 334.8083 0036903 346.8253   2.1473  0.99400456133900
TVSAT 2                 
1 20168U 89062A   26117.13011098 -.00000249  00000+0  00000+0 0  9996
2 20168  14.6944 356.1759 0001997 204.0381 349.5944  0.99845128133996
HIPPARCOS               
1 20169U 89062B   26116.30128007  .00000083  00000+0  81113-3 0  9997
2 20169   7.3439 340.5480 7190894 302.7720   7.4595  2.26412736268187
TITAN 34D TRANSTAGE R/B 
1 20205U 89069D   26116.05045383 -.00000361  00000+0  00000+0 0  9994
2 20205  11.1226 327.9541 0070504 346.2507  13.4728  1.01247763 26473
FLTSATCOM 8 (USA 46)    
1 20253U 89077A   26117.53447514 -.00000377  00000+0  00000+0 0  9999
2 20253  12.4360 351.4700 0006805  18.1666 163.8436  1.00280220260056
GORIZONT 19             
1 20263U 89081A   26117.08879208 -.00000216  00000+0  00000+0 0  9996
2 20263  12.1321 333.8381 0005298 284.5824  75.7342  1.00193618 46828
SL-12 R/B(2)            
1 20266U 89081D   26117.47461844 -.00000315  00000+0  00000+0 0  9995
2 20266  11.9371 333.2228 0026419 122.6098  61.4786  1.00602950118840
HIMAWARI-4 AKM          
1 20317U 89070C   26117.31190279 -.00000068  00000+0  00000+0 0  9999
2 20317  12.6426 337.5095 0242542  62.0339 136.7278  0.98763132 46159
COSMOS 2050             
1 20330U 89091A   26116.76052951  .00000096  00000+0  00000+0 0  9999
2 20330  65.4270  88.1669 5950514 164.3453 228.0025  2.00379961266771
USA 48                  
1 20355U 89090B   26117.43239191 -.00000242  00000+0  00000+0 0  9997
2 20355  16.9254 341.2700 0289447 113.3668 252.8589  1.00729857  7255
IUS R/B(2)              
1 20357U 89090D   26116.09793247 -.00000294  00000+0  00000+0 0  9994
2 20357  17.2983 343.1661 0335062 100.6640 263.0893  0.99517265 24842
RADUGA 24               
1 20367U 89098A   26117.01348794 -.00000350  00000+0  00000+0 0  9992
2 20367  12.5603 334.1574 0003089 300.4266  47.9392  1.00298002132456
COSMOS 2054             
1 20391U 89101A   26116.81554310  .00000032  00000+0  00000+0 0  9990
2 20391  12.2944 334.6058 0000815 232.0251 124.9375  1.00257354133349
LEASAT 5                
1 20410U 90002B   26117.43225302 -.00000254  00000+0  00000+0 0  9996
2 20410  11.1044 353.0446 0004519  47.4264 313.7782  0.99600228117928
SL-12 R/B(2)            
1 20413U 83020D   26119.81480814 -.00001011  00000+0  00000+0 0  9998
2 20413  77.2982  58.2462 6886209  50.7395 358.5253  0.24736027 11231
STTW-4                  
1 20473U 90011A   26117.13358397 -.00000293  00000+0  00000+0 0  9996
2 20473  14.1824 346.8041 0002064 156.6908 213.2022  1.00303310132538
